# FY3D (LEO)
1 43010U 17072A   26203.94846613 -.00000327  00000+0 -13258-3 0  9994
2 43010  99.0155 179.0213 0001046 358.8244   1.2929 14.19744409450068

# FY3E (LEO)
1 49008U 21062A   26203.99886056 -.00000058  00000+0 -66953-5 0  9994
2 49008  98.7513 207.0090 0001833  26.2066 333.9203 14.19906308261666

# FY3F (LEO)
1 57490U 23111A   26203.91144359  .00000009  00000+0  24755-4 0  9997
2 57490  98.6820 273.2515 0001123  74.9337 285.1964 14.19944297153931

# FY3G (LEO)
1 56232U 23055A   26203.93642895  .00027002  00000+0  41376-3 0  9996
2 56232  49.9912 161.6096 0006816  93.1017 267.0730 15.54061298185566

# C2E1 (LEO)
1 44349U 19036L   26203.91772486  .00002182  00000+0  16093-3 0  9994
2 44349  23.9967 151.4807 0000545 210.8458 149.2011 14.96634503390012

# C2E2 (LEO)
1 44351U 19036N   26203.49599296  .00001862  00000+0  13352-3 0  9995
2 44351  23.9977 270.7545 0000315 211.5854 148.4628 14.96628795388886

# C2E3 (LEO)
1 44343U 19036E   26202.48111421  .00003638  00000+0  19721-3 0  9993
2 44343  23.9996 302.4695 0000568  14.9916 345.0604 15.10025564388433

# C2E4 (LEO)
1 44350U 19036M   26203.34028121  .00001897  00000+0  13647-3 0  9997
2 44350  23.9965 217.4866 0000830 227.4313 132.6118 14.96628178389340

# C2E5 (LEO)
1 44358U 19036V   26203.87313823  .00002348  00000+0  17521-3 0  9996
2 44358  23.9996  27.7718 0000041 172.6700 187.3801 14.96616789387704

# C2E6 (LEO)
1 44353U 19036Q   26203.89558706  .00002256  00000+0  16724-3 0  9996
2 44353  23.9979  88.8640 0001243 147.7166 212.3411 14.96636103387175

# G01 (GNSS)
1 62339U 24242A   26200.72170847 -.00000109  00000+0  00000+0 0  9992
2 62339  54.8338 332.8621 0017996   4.3540 337.1791  2.00572353 11908

# G02 (GNSS)
1 28474U 04045A   26203.72416769 -.00000112  00000+0  00000+0 0  9996
2 28474  55.1131 323.4649 0170333 317.2409  59.2092  2.00557577159142

# G03 (GNSS)
1 40294U 14068A   26203.32201732 -.00000080  00000+0  00000+0 0  9998
2 40294  57.0119  29.6026 0067450  72.5356 288.2395  2.00553794 85914

# G04 (GNSS)
1 43873U 18109A   26202.72731404 -.00000063  00000+0  00000+0 0  9992
2 43873  55.7026  90.8235 0038803 197.0340  26.2979  2.00563321 55765

# G05 (GNSS)
1 35752U 09043A   26203.53798519 -.00000082  00000+0  00000+0 0  9997
2 35752  56.2325  26.0647 0053646  84.7105 285.5515  2.00552541124070

# G06 (GNSS)
1 39741U 14026A   26203.36185617 -.00000111  00000+0  00000+0 0  9999
2 39741  56.4791 330.1484 0038189 325.5817  34.1763  2.00558522 89247

# G07 (GNSS)
1 32711U 08012A   26202.53637968  .00000024  00000+0  00000+0 0  9998
2 32711  54.5004 148.5525 0211735 248.2108 109.5034  2.00573366134448

# G08 (GNSS)
1 40730U 15033A   26203.12292288 -.00000021  00000+0  00000+0 0  9995
2 40730  53.9562 265.6444 0115499  30.3091 330.4232  2.00554225 80697

# G09 (GNSS)
1 40105U 14045A   26202.95485960 -.00000067  00000+0  00000+0 0  9994
2 40105  55.3757  87.0795 0034720 118.5048 241.8949  2.00560793 86770

# G10 (GNSS)
1 41019U 15062A   26201.68168135 -.00000086  00000+0  00000+0 0  9991
2 41019  56.9821  29.5218 0113089 230.8511 128.1725  2.00567122 78508

# G11 (GNSS)
1 48859U 21054A   26203.41991022 -.00000113  00000+0  00000+0 0  9991
2 48859  55.1554 331.0432 0026666 228.6022 140.0987  2.00567016 37461

# G12 (GNSS)
1 29601U 06052A   26202.32243536  .00000075  00000+0  00000+0 0  9991
2 29601  54.9318 212.6530 0084749  91.0110 269.9907  2.00560107144094

# G13 (GNSS)
1 24876U 97035A   26203.10230867 -.00000060  00000+0  00000+0 0  9996
2 24876  56.0126  97.2098 0104092  57.6912 303.3519  2.00564064212657

# G14 (GNSS)
1 46826U 20078A   26203.40249986  .00000084  00000+0  00000+0 0  9998
2 46826  53.9765 209.3500 0074707 207.9626 321.8106  2.00565122 42212

# G15 (GNSS)
1 32260U 07047A   26203.62553203 -.00000073  00000+0  00000+0 0  9999
2 32260  54.1215  78.6047 0168028  88.1689 273.8107  2.00553740137522

# G16 (GNSS)
1 27663U 03005A   26203.02122582  .00000081  00000+0  00000+0 0  9994
2 27663  54.8783 213.5847 0148435  53.1965 318.1453  2.00558761172015

# G17 (GNSS)
1 28874U 05038A   26202.81402546 -.00000037  00000+0  00000+0 0  9996
2 28874  54.8504 271.7781 0128324 296.5020 107.5834  2.00563382152537

# G18 (GNSS)
1 44506U 19056A   26203.78587352 -.00000112  00000+0  00000+0 0  9991
2 44506  55.6178 329.7278 0063752 198.2915 333.8944  2.00570518 50781

# G19 (GNSS)
1 28190U 04009A   26203.10079940 -.00000041  00000+0  00000+0 0  9990
2 28190  54.8010 274.2748 0117386 174.6364  46.5669  2.00553594163640

# G20 (GNSS)
1 26360U 00025A   26201.86606257 -.00000095  00000+0  00000+0 0  9998
2 26360  55.1629  17.9486 0021211 258.6450 119.2841  2.00563306191955

# G21 (GNSS)
1 64202U 25116A   26202.24475308 -.00000088  00000+0  00000+0 0  9999
2 64202  55.2580  29.7605 0008410 339.2727 205.1759  2.00573612  8559

# G22 (GNSS)
1 26407U 00040A   26203.87248935  .00000086  00000+0  00000+0 0  9994
2 26407  54.8478 213.7447 0120310 302.8398 186.9188  2.00558029190669

# G23 (GNSS)
1 45854U 20041A   26203.87491671 -.00000079  00000+0  00000+0 0  9994
2 45854  56.6939  27.5596 0065610 204.6648 328.6198  2.00558039 44757

# G24 (GNSS)
1 38833U 12053A   26202.21868512  .00000014  00000+0  00000+0 0  9994
2 38833  53.5902 142.2050 0182407  66.3332 295.5491  2.00568090100129

# G25 (GNSS)
1 36585U 10022A   26203.35751557  .00000085  00000+0  00000+0 0  9994
2 36585  54.2681 207.1453 0126901  66.1639 294.0229  2.00564201118296

# G26 (GNSS)
1 40534U 15013A   26201.96718444  .00000074  00000+0  00000+0 0  9999
2 40534  53.1254 202.7533 0110322  40.4930 320.3352  2.00574219 82502

# G27 (GNSS)
1 39166U 13023A   26203.08371062 -.00000025  00000+0  00000+0 0  9990
2 39166  54.4778 267.5502 0141404  51.1079 310.2126  2.00563446 96589

# G28 (GNSS)
1 55268U 23009A   26201.60569105  .00000029  00000+0  00000+0 0  9992
2 55268  55.1257 147.2053 0005286 339.0004 198.4380  2.00569363 25919

# G29 (GNSS)
1 32384U 07062A   26203.44714995 -.00000034  00000+0  00000+0 0  9997
2 32384  55.0037 272.7334 0036068 168.2064 191.1622  2.00562126136219

# G30 (GNSS)
1 39533U 14008A   26203.08558290  .00000016  00000+0  00000+0 0  9991
2 39533  53.6583 147.8962 0084029 231.5745 127.6466  2.00562088 90385

# G31 (GNSS)
1 29486U 06042A   26203.90730398  .00000012  00000+0  00000+0 0  9994
2 29486  54.7132 149.9207 0107400  55.3867 317.1838  2.00567878145117

# G32 (GNSS)
1 41328U 16007A   26201.77276081 -.00000059  00000+0  00000+0 0  9994
2 41328  55.5446  88.1275 0096649 247.5642 111.4594  2.00575241 76514

# C06 (GNSS)
1 36828U 10036A   26203.83497221 -.00000090  00000+0  00000+0 0  9994
2 36828  54.3079 162.6381 0059059 225.2794 320.0279  1.00261993 58459

# C04 (GNSS)
1 37210U 10057A   26203.85983729 -.00000112  00000+0  00000+0 0  9993
2 37210   3.7336  68.7236 0005248 183.3998 157.9688  1.00273222 57644

# C07 (GNSS)
1 37256U 10068A   26202.87819282 -.00000198  00000+0  00000+0 0  9992
2 37256  47.4828 271.3972 0057045 214.5351 238.1175  1.00271863 57143

# C14 (GNSS)
1 38775U 12050B   26201.12202765 -.00000077  00000+0  00000+0 0  9997
2 38775  56.5733  61.8055 0012726   2.2324 357.8361  1.86230986 93926

# C01 (GNSS)
1 44231U 19027A   26203.92813701 -.00000245  00000+0  00000+0 0  9997
2 44231   1.7467  74.5080 0009567 284.1646  60.6301  1.00270152 26432

# C24 (GNSS)
1 43582U 18062B   26203.94669370  .00000073  00000+0  00000+0 0  9994
2 43582  54.0863 181.0774 0005416  11.3653 348.6292  1.86228040 54300

# C26 (GNSS)
1 43602U 18067A   26203.34818779  .00000075  00000+0  00000+0 0  9997
2 43602  54.1814 179.8480 0008056  30.0982 329.9290  1.86227647 53777

# C25 (GNSS)
1 43603U 18067B   26203.48334856  .00000074  00000+0  00000+0 0  9991
2 43603  54.1790 179.8069 0004711  13.8636 346.1302  1.86227144 53804

# C32 (GNSS)
1 43622U 18072A   26201.82711213 -.00000080  00000+0  00000+0 0  9998
2 43622  56.6540  61.5496 0005671 334.9185  25.1158  1.86231285 53284

# C33 (GNSS)
1 43623U 18072B   26202.22949836 -.00000080  00000+0  00000+0 0  9998
2 43623  56.6565  61.5310 0005431  13.4516 346.6246  1.86231111 53285

# C35 (GNSS)
1 43647U 18078A   26201.84740124 -.00000098  00000+0  00000+0 0  9995
2 43647  54.0571 298.8050 0006516  39.3061 320.7783  1.86232384 52789

# C34 (GNSS)
1 43648U 18078B   26201.97666235 -.00000098  00000+0  00000+0 0  9990
2 43648  54.0528 298.8006 0003387  57.1042 302.9655  1.86232487 52800

# C59 (GNSS)
1 43683U 18085A   26203.93117036 -.00000107  00000+0  00000+0 0  9996
2 43683   2.9568  96.4078 0008338 357.3819 342.0984  1.00273032 28411

# C36 (GNSS)
1 43706U 18093A   26203.11628203  .00000078  00000+0  00000+0 0  9990
2 43706  54.1702 181.1114 0009999 295.2679   0.0935  1.86228496 52183

# C37 (GNSS)
1 43707U 18093B   26202.00234979  .00000078  00000+0  00000+0 0  9991
2 43707  54.1710 181.1414 0008117 324.4293  35.4967  1.86226686 52168

# C38 (GNSS)
1 44204U 19023A   26203.44280863 -.00000208  00000+0  00000+0 0  9996
2 44204  58.7457  37.2857 0026194 223.4912 318.1363  1.00281841  7567

# C39 (GNSS)
1 44337U 19035A   26202.76760661 -.00000106  00000+0  00000+0 0  9996
2 44337  55.2573 158.5594 0039050 212.8700 322.7485  1.00289985 26016

# C46 (GNSS)
1 44542U 19061A   26203.68139950  .00000076  00000+0  00000+0 0  9991
2 44542  54.3972 181.5308 0008747   0.3331 359.6504  1.86229301 46456

# C45 (GNSS)
1 44543U 19061B   26203.81878547  .00000075  00000+0  00000+0 0  9998
2 44543  54.3962 181.4944 0006012 341.9460  21.5168  1.86227471 46469

# C44 (GNSS)
1 44793U 19078A   26201.91091067 -.00000098  00000+0  00000+0 0  9992
2 44793  53.9028 298.6402 0005603  50.2813 309.8054  1.86227204 45279

# C43 (GNSS)
1 44794U 19078B   26200.97683179 -.00000096  00000+0  00000+0 0  9997
2 44794  53.8770 298.6333 0003525  49.7600 310.3090  1.86227606 45266

# C41 (GNSS)
1 44864U 19090A   26203.09769958 -.00000079  00000+0  00000+0 0  9996
2 44864  56.5900  61.6363 0016554 296.8524 242.7354  1.86231513 44886
